GLOBALSTAR M084 [+]     
1 38040U 11080A   23317.56302733 -.00000081  00000+0  12859-3 0  9997
2 38040  52.0031  19.1505 0000517 145.0136   1.7812 12.62267588549219
GLOBALSTAR M080 [+]     
1 38041U 11080B   23317.93801878 -.00000082  00000+0  12183-3 0  9994
2 38041  52.0087  19.4116 0000713 145.8435  25.8821 12.62266084549385
GLOBALSTAR M082 [+]     
1 38042U 11080C   23317.79248241 -.00000085  00000+0  10665-3 0  9994
2 38042  52.0094 335.2392 0000741  20.4024 150.8612 12.62267956550076
GLOBALSTAR M092 [+]     
1 38043U 11080D   23317.57279258 -.00000117  00000+0 -75505-4 0  9995
2 38043  52.0093  66.2483 0000583 151.9845 221.2079 12.62262535548506
GLOBALSTAR M090 [+]     
1 38044U 11080E   23317.81874613 -.00000086  00000+0  10065-3 0  9992
2 38044  51.9900 329.7157 0000539  47.5561 123.9568 12.62263439550196
GLOBALSTAR M086 [+]     
1 38045U 11080F   23317.76615163 -.00000086  00000+0  10143-3 0  9997
2 38045  51.9913 330.3833 0001256 100.9139  70.4519 12.62264261550132
GLOBALSTAR M097 [+]     
1 39072U 13005A   23317.83412217 -.00000087  00000+0  92045-4 0  9993
2 39072  52.0047 244.1318 0001061  61.2251 298.8722 12.62272513497390
GLOBALSTAR M093 [+]     
1 39073U 13005B   23317.25335421 -.00000078  00000+0  14163-3 0  9995
2 39073  51.9810 240.1343 0001318  62.4686 297.6314 12.62268708497273
